PROXIMA I               
1 43694U 18088E   22052.93773886  .00005985  00000+0  24125-3 0  9996
2 43694  85.0319  29.8541 0018156 172.2606 187.8921 15.24451874182365
PROXIMA II              
1 43696U 18088G   22053.06808470  .00006014  00000+0  24244-3 0  9997
2 43696  85.0321  29.7819 0018220 171.7642 188.3904 15.24444925182370
FACSAT-1                
1 43721U 18096C   22053.10594241  .00011548  00000+0  37643-3 0  9993
2 43721  97.3618 133.4053 0016799 104.3685 344.8874 15.31835780180290
CENTAURI-2              
1 43722U 18096D   22052.75839304  .00013060  00000+0  39977-3 0  9999
2 43722  97.3645 134.5145 0015829 102.8477 257.4535 15.33830664180314
INNOSAT-2               
1 43738U 18096V   22053.10523689  .00022930  00000+0  58534-3 0  9998
2 43738  97.3743 140.4740 0018825  96.9204 347.7070 15.39314391180718
SIRION PATHFINDER-2     
1 43759U 18099B   22052.86890380  .00001616  00000+0  14943-3 0  9995
2 43759  97.6350 122.6240 0012599 290.5795  69.4075 14.95886590175762
CORVUS BC4              
1 43767U 18099K   22053.17832684  .00000962  00000+0  92384-4 0  9991
2 43767  97.6311 121.5963 0010356 296.2699  63.7458 14.95294044175740
MOVE-II                 
1 43780U 18099Y   22052.92735199  .00002666  00000+0  23826-3 0  9998
2 43780  97.6375 123.1385 0011824 300.7064  59.2992 14.96696377175771
SPACEBEE-7              
1 43816U 18099BL  22052.91381350  .00001947  00000+0  17503-3 0  9999
2 43816  97.6391 123.8299 0012052 283.2042  76.7835 14.96761434175367
SPACEBEE-5              
1 43817U 18099BM  22052.92500099  .00005316  00000+0  44392-3 0  9994
2 43817  97.6499 126.0343 0012068 276.1332  83.8515 14.98907087175454
SPACEBEE-6              
1 43818U 18099BN  22052.86633987  .00003409  00000+0  29782-3 0  9998
2 43818  97.6426 124.4474 0011501 280.8337  79.1591 14.97396326175538
SHIELDS 1               
1 43850U 18104B   22052.93780598  .00002658  00000+0  11237-3 0  9991
2 43850  85.0294 128.8222 0013398 339.4164  20.6537 15.22638060176920
STF-1                   
1 43852U 18104D   22052.74786040  .00006180  00000+0  25095-3 0  9991
2 43852  85.0326 129.4928 0012820 353.9049   6.2036 15.24293585176903
ZACUBE-2                
1 43907U 18111AH  22053.17737249  .00003084  00000+0  12131-3 0  9992
2 43907  97.2065 303.6028 0022012 125.5060  25.3595 15.26158847175708
LUME 1                  
1 43908U 18111AJ  22052.94720416  .00006111  00000+0  22472-3 0  9998
2 43908  97.2072 304.4791 0021016 122.4090 237.9186 15.28030013175742
AOBA VELOX-IV           
1 43940U 19003J   22053.09092607  .00014575  00000+0  48453-3 0  9996
2 43940  97.1466  92.8003 0019981 194.7310 165.3352 15.31082346172446
MOVE-IIB                
1 44398U 19038N   22052.93273665  .00006405  00000+0  33750-3 0  9996
2 44398  97.6152  21.5858 0023413 163.6868 196.5122 15.15713858145527
SONATE                  
1 44400U 19038Q   22052.86298781  .00002514  00000+0  14355-3 0  9995
2 44400  97.6252  21.0636 0024389 167.4156 192.7689 15.13423498145449
LUCKY-7                 
1 44406U 19038W   22053.18447560  .00004134  00000+0  22955-3 0  9993
2 44406  97.6256  21.7741 0023991 164.4259 195.7716 15.14053561145515
BEESAT 9                
1 44412U 19038AC  22052.86072165  .00005438  00000+0  29506-3 0  9996
2 44412  97.6230  21.5915 0021621 169.2973 190.8723 15.14779272145180
JAISAT-1                
1 44419U 19038F   22052.88289732  .00004545  00000+0  24405-3 0  9996
2 44419  97.6235  22.3594 0020685 166.4715 193.7075 15.15260183145545
DUCHIFAT-3              
1 44854U 19089C   22053.12740063  .00002293  00000+0  18622-3 0  9994
2 44854  36.9668  63.5484 0008538 357.2852   2.7843 15.00170663120603
EYESAT-NANO             
1 44877U 19092E   22052.47302565  .00006060  00000+0  28479-3 0  9998
2 44877  97.4617 237.8873 0013363  45.2088 315.0231 15.19890135120737
ORBITAL FACTORY 2 (OF-2)
1 45113U 19071C   22052.84622015  .00013285  00000+0  33977-3 0  9991
2 45113  51.6398 265.6039 0011041 119.6324 240.5761 15.39698437115537
M2 PATHFINDER           
1 45727U 20037E   22053.05413026  .00001531  00000+0  15759-3 0  9999
2 45727  97.7234 230.6967 0013834  62.3811 297.8803 14.91665581 89620
NETSAT-4                
1 46504U 20068U   22052.80421329  .00001398  00000+0  10932-3 0  9993
2 46504  97.7155 352.9677 0013368   7.6423 352.5002 15.02665997 76670
NETSAT-3                
1 46505U 20068V   22052.88326292  .00001909  00000+0  14769-3 0  9995
2 46505  97.7158 352.9845 0011781  18.1891 341.9749 15.02641785 76695
NETSAT-1                
1 46506U 20068W   22052.82950780  .00002200  00000+0  16975-3 0  9991
2 46506  97.7128 352.8710 0009553  25.5636 334.6059 15.02598956 76689
NETSAT-2                
1 46507U 20068X   22052.83690011  .00002588  00000+0  19900-3 0  9991
2 46507  97.7118 352.8726 0008915  28.3808 331.7900 15.02578428 76639
SPOC                    
1 46921U 98067RR  22052.71586108  .00049986  00000+0  48623-3 0  9990
2 46921  51.6368 165.4963 0002872 321.3594  38.7195 15.65766826 73738
BOBCAT-1                
1 46922U 98067RS  22052.71933094  .00129510  00000+0  74146-3 0  9992
2 46922  51.6351 155.7827 0005426 337.3421  22.7339 15.77909749 73825
NEUTRON-1               
1 46923U 98067RT  22053.13405301  .00055029  00000+0  53623-3 0  9995
2 46923  51.6373 163.7968 0003059 330.9131  29.1694 15.65681292 73813
DESCENT                 
1 46927U 98067RX  22053.00073539  .00055739  00000+0  53749-3 0  9996
2 46927  51.6375 164.4037 0003417 338.6854  21.3999 15.65937006 73706
SAI-1 NANOCONNECT-2     
1 47701U 21015C   22053.01821092 -.00000073  00000+0  00000+0 0  9992
2 47701  97.4447 130.7141 0016184 132.3411 228.1515 15.24576256 54611
WARP-01                 
1 47924U 98067SA  22052.60795451  .00091180  00000+0  78220-3 0  9994
2 47924  51.6352 172.2325 0006155 323.9845  36.0736 15.68605495 53623
RSP-01                  
1 47925U 98067SB  22053.15694516  .00064202  00000+0  66731-3 0  9995
2 47925  51.6384 172.1963 0002688 302.4296  57.6438 15.63990962 53657
TAUSAT-1                
1 47926U 98067SC  22053.02990571  .00099626  00000+0  83664-3 0  9994
2 47926  51.6375 169.0685 0003750 306.9261  53.1392 15.69100232 53677
TSURU                   
1 47927U 98067SD  22052.62023584  .00048790  00000+0  54424-3 0  9999
2 47927  51.6378 176.1050 0002289 290.4788  69.5960 15.62299988 53552
STARS-EC                
1 47928U 98067SE  22052.80728423  .00122977  00000+0  95374-3 0  9993
2 47928  51.6363 170.5768 0007192 327.5010  32.5545 15.70899777 53627
MAYA-2                  
1 47929U 98067SF  22052.80826737  .00047765  00000+0  53330-3 0  9998
2 47929  51.6381 175.1094 0002226 288.6927  71.3825 15.62285703 53540
HIROGARI (OPUSAT-II)    
1 47930U 98067SG  22052.81334399  .00117181  00000+0  86589-3 0  9991
2 47930  51.6355 169.1234 0004252 317.2845  42.7822 15.72091734 53663
GUARANISAT-1            
1 47931U 98067SH  22052.35378179  .00045888  00000+0  51154-3 0  9999
2 47931  51.6391 177.3368 0002325 286.5863  73.4876 15.62343402 53515
SMOG-1                  
1 47964U 21022AJ  22052.67191701  .00004584  00000+0  29822-3 0  9996
2 47964  97.5411 315.3657 0019323 168.4766 191.6908 15.08319057 49427
MMSATS-1                
1 47976U 98067SJ  22052.86778449  .00014683  00000+0  23170-3 0  9994
2 47976  51.6450 182.9646 0002023 298.5905  61.4890 15.53757473 52267
BCCSAT-1                
1 48041U 21022AK  22052.73261256  .00004126  00000+0  27409-3 0  9994
2 48041  97.5421 315.1704 0015873 164.7286 195.4425 15.07654232 49396
RAMSAT                  
1 48850U 98067SL  22052.73969945  .00028833  00000+0  39653-3 0  9990
2 48850  51.6399 182.1228 0004406 341.6599  18.4234 15.57030243 39234
SOAR                    
1 48851U 98067SM  22052.47750162  .00244680  00000+0  10170-2 0  9993
2 48851  51.6275 169.7545 0007820 331.3729  28.6844 15.84479288 39411
BD-28                   
1 48867U 98067SN  22052.80982640  .00034352  00000+0  45472-3 0  9992
2 48867  51.6381 181.0852 0003250   4.2529 355.8490 15.57967742 38004
MIR-SAT 1               
1 48868U 98067SP  22052.82222535  .00118866  00000+0  10147-2 0  9998
2 48868  51.6356 175.9062 0005554 332.6121  27.4582 15.68612606 38100
1998-067SR              
1 49272U 98067SR  22052.81252763  .00031721  00000+0  45963-3 0  9992
2 49272  51.6395 184.8428 0004794 257.8446 102.2008 15.55563203 21595
1998-067SS              
1 49273U 98067SS  22052.63761698  .00042403  00000+0  58038-3 0  9991
2 49273  51.6392 185.1760 0004738 258.7698 101.2761 15.56964883 21576
1998-067ST              
1 49274U 98067ST  22052.77130448  .00042260  00000+0  58033-3 0  9996
2 49274  51.6395 184.5693 0004658 258.3605 101.6864 15.56877786 21598
CUAVA-1                 
1 49275U 98067SU  22052.80332186  .00041719  00000+0  58118-3 0  9996
2 49275  51.6411 184.4515 0004782 262.8312 252.3888 15.56495960 21548
